[{"OBJECT_NAME":"ONEWEB-0335","OBJECT_ID":"2021-083R","EPOCH":"2025-12-30T22:26:20.606208","MEAN_MOTION":13.13469507,"ECCENTRICITY":0.0001842,"INCLINATION":87.8978,"RA_OF_ASC_NODE":353.6785,"ARG_OF_PERICENTER":92.4303,"MEAN_ANOMALY":267.7037,"EPHEMERIS_TYPE":0,"CLASSIFICATION_TYPE":"U","NORAD_CAT_ID":49201,"ELEMENT_SET_NO":999,"REV_AT_EPOCH":20883,"BSTAR":-0.00065588,"MEAN_MOTION_DOT":-2.27e-6,"MEAN_MOTION_DDOT":0},{"OBJECT_NAME":"ONEWEB-0336","OBJECT_ID":"2021-083S","EPOCH":"2025-12-30T23:34:35.387328","MEAN_MOTION":13.13468099,"ECCENTRICITY":0.0001881,"INCLINATION":87.8976,"RA_OF_ASC_NODE":353.666,"ARG_OF_PERICENTER":101.7675,"MEAN_ANOMALY":258.3666,"EPHEMERIS_TYPE":0,"CLASSIFICATION_TYPE":"U","NORAD_CAT_ID":49202,"ELEMENT_SET_NO":999,"REV_AT_EPOCH":20883,"BSTAR":0.00028084596,"MEAN_MOTION_DOT":1.15e-6,"MEAN_MOTION_DDOT":0},{"OBJECT_NAME":"ONEWEB-0337","OBJECT_ID":"2021-083T","EPOCH":"2025-12-31T01:38:43.084608","MEAN_MOTION":13.13469702,"ECCENTRICITY":0.00016457,"INCLINATION":87.8979,"RA_OF_ASC_NODE":353.6601,"ARG_OF_PERICENTER":93.6332,"MEAN_ANOMALY":266.4986,"EPHEMERIS_TYPE":0,"CLASSIFICATION_TYPE":"U","NORAD_CAT_ID":49203,"ELEMENT_SET_NO":999,"REV_AT_EPOCH":20884,"BSTAR":-0.00031708618,"MEAN_MOTION_DOT":-1.03e-6,"MEAN_MOTION_DDOT":0},{"OBJECT_NAME":"ONEWEB-0338","OBJECT_ID":"2021-083U","EPOCH":"2025-12-31T05:45:57.406464","MEAN_MOTION":13.20772213,"ECCENTRICITY":0.00017306,"INCLINATION":87.9212,"RA_OF_ASC_NODE":307.9605,"ARG_OF_PERICENTER":68.2288,"MEAN_ANOMALY":291.9029,"EPHEMERIS_TYPE":0,"CLASSIFICATION_TYPE":"U","NORAD_CAT_ID":49204,"ELEMENT_SET_NO":999,"REV_AT_EPOCH":21464,"BSTAR":-2.0141062e-5,"MEAN_MOTION_DOT":5.0e-8,"MEAN_MOTION_DDOT":0},{"OBJECT_NAME":"ONEWEB-0339","OBJECT_ID":"2021-083V","EPOCH":"2025-12-31T00:01:24.379968","MEAN_MOTION":13.13469819,"ECCENTRICITY":0.00016083,"INCLINATION":87.8982,"RA_OF_ASC_NODE":353.6573,"ARG_OF_PERICENTER":83.5207,"MEAN_ANOMALY":276.6105,"EPHEMERIS_TYPE":0,"CLASSIFICATION_TYPE":"U","NORAD_CAT_ID":49205,"ELEMENT_SET_NO":999,"REV_AT_EPOCH":20881,"BSTAR":-0.00065211444,"MEAN_MOTION_DOT":-2.25e-6,"MEAN_MOTION_DDOT":0},{"OBJECT_NAME":"ONEWEB-0340","OBJECT_ID":"2021-083W","EPOCH":"2025-12-31T05:15:58.995648","MEAN_MOTION":13.18687324,"ECCENTRICITY":0.00017812,"INCLINATION":87.9175,"RA_OF_ASC_NODE":8.8052,"ARG_OF_PERICENTER":91.9548,"MEAN_ANOMALY":268.1788,"EPHEMERIS_TYPE":0,"CLASSIFICATION_TYPE":"U","NORAD_CAT_ID":49206,"ELEMENT_SET_NO":999,"REV_AT_EPOCH":20783,"BSTAR":1.608498e-6,"MEAN_MOTION_DOT":1.4e-7,"MEAN_MOTION_DDOT":0},{"OBJECT_NAME":"ONEWEB-0341","OBJECT_ID":"2021-083X","EPOCH":"2025-12-31T07:14:44.433024","MEAN_MOTION":13.18687174,"ECCENTRICITY":0.00013146,"INCLINATION":87.9173,"RA_OF_ASC_NODE":8.7998,"ARG_OF_PERICENTER":102.9244,"MEAN_ANOMALY":257.2035,"EPHEMERIS_TYPE":0,"CLASSIFICATION_TYPE":"U","NORAD_CAT_ID":49207,"ELEMENT_SET_NO":999,"REV_AT_EPOCH":20786,"BSTAR":-6.9335579e-5,"MEAN_MOTION_DOT":-1.4e-7,"MEAN_MOTION_DDOT":0},{"OBJECT_NAME":"ONEWEB-0342","OBJECT_ID":"2021-083Y","EPOCH":"2025-12-31T05:55:02.126496","MEAN_MOTION":13.20772757,"ECCENTRICITY":0.00017411,"INCLINATION":87.9223,"RA_OF_ASC_NODE":307.9321,"ARG_OF_PERICENTER":72.1255,"MEAN_ANOMALY":288.0068,"EPHEMERIS_TYPE":0,"CLASSIFICATION_TYPE":"U","NORAD_CAT_ID":49208,"ELEMENT_SET_NO":999,"REV_AT_EPOCH":21461,"BSTAR":0.00014322761,"MEAN_MOTION_DOT":7.1e-7,"MEAN_MOTION_DDOT":0},{"OBJECT_NAME":"ONEWEB-0343","OBJECT_ID":"2021-083Z","EPOCH":"2025-12-31T07:26:37.766112","MEAN_MOTION":13.18686395,"ECCENTRICITY":0.00011674,"INCLINATION":87.9174,"RA_OF_ASC_NODE":8.7911,"ARG_OF_PERICENTER":86.9596,"MEAN_ANOMALY":273.1669,"EPHEMERIS_TYPE":0,"CLASSIFICATION_TYPE":"U","NORAD_CAT_ID":49209,"ELEMENT_SET_NO":999,"REV_AT_EPOCH":20791,"BSTAR":-8.1221375e-5,"MEAN_MOTION_DOT":-1.9e-7,"MEAN_MOTION_DDOT":0},{"OBJECT_NAME":"ONEWEB-0344","OBJECT_ID":"2021-083AA","EPOCH":"2025-12-30T23:54:05.309856","MEAN_MOTION":13.13469117,"ECCENTRICITY":0.00014745,"INCLINATION":87.8965,"RA_OF_ASC_NODE":353.6873,"ARG_OF_PERICENTER":97.4985,"MEAN_ANOMALY":262.6312,"EPHEMERIS_TYPE":0,"CLASSIFICATION_TYPE":"U","NORAD_CAT_ID":49210,"ELEMENT_SET_NO":999,"REV_AT_EPOCH":20881,"BSTAR":-0.00044861473,"MEAN_MOTION_DOT":-1.51e-6,"MEAN_MOTION_DDOT":0},{"OBJECT_NAME":"ONEWEB-0345","OBJECT_ID":"2021-083AB","EPOCH":"2025-12-30T23:41:54.555072","MEAN_MOTION":13.13469526,"ECCENTRICITY":0.00014094,"INCLINATION":87.8979,"RA_OF_ASC_NODE":353.6505,"ARG_OF_PERICENTER":94.7657,"MEAN_ANOMALY":265.3633,"EPHEMERIS_TYPE":0,"CLASSIFICATION_TYPE":"U","NORAD_CAT_ID":49211,"ELEMENT_SET_NO":999,"REV_AT_EPOCH":20882,"BSTAR":-0.0001629178,"MEAN_MOTION_DOT":-4.7e-7,"MEAN_MOTION_DDOT":0},{"OBJECT_NAME":"ONEWEB-0346","OBJECT_ID":"2021-083AC","EPOCH":"2025-12-31T07:21:53.566272","MEAN_MOTION":13.1868423,"ECCENTRICITY":0.00022824,"INCLINATION":87.9167,"RA_OF_ASC_NODE":8.8058,"ARG_OF_PERICENTER":100.5508,"MEAN_ANOMALY":259.5881,"EPHEMERIS_TYPE":0,"CLASSIFICATION_TYPE":"U","NORAD_CAT_ID":49212,"ELEMENT_SET_NO":999,"REV_AT_EPOCH":20785,"BSTAR":-3.8340916e-5,"MEAN_MOTION_DOT":-2.0e-8,"MEAN_MOTION_DDOT":0},{"OBJECT_NAME":"ONEWEB-0348","OBJECT_ID":"2021-083AD","EPOCH":"2025-12-31T05:41:23.932320","MEAN_MOTION":13.2077286,"ECCENTRICITY":0.00017334,"INCLINATION":87.9218,"RA_OF_ASC_NODE":307.9382,"ARG_OF_PERICENTER":97.0045,"MEAN_ANOMALY":263.1286,"EPHEMERIS_TYPE":0,"CLASSIFICATION_TYPE":"U","NORAD_CAT_ID":49213,"ELEMENT_SET_NO":999,"REV_AT_EPOCH":21464,"BSTAR":0.00012542914,"MEAN_MOTION_DOT":6.4e-7,"MEAN_MOTION_DDOT":0},{"OBJECT_NAME":"ONEWEB-0350","OBJECT_ID":"2021-083AE","EPOCH":"2025-12-30T23:55:17.878080","MEAN_MOTION":13.13467701,"ECCENTRICITY":0.00015502,"INCLINATION":87.8986,"RA_OF_ASC_NODE":353.6471,"ARG_OF_PERICENTER":95.8931,"MEAN_ANOMALY":264.2375,"EPHEMERIS_TYPE":0,"CLASSIFICATION_TYPE":"U","NORAD_CAT_ID":49214,"ELEMENT_SET_NO":999,"REV_AT_EPOCH":20885,"BSTAR":-0.00055625622,"MEAN_MOTION_DOT":-1.9e-6,"MEAN_MOTION_DDOT":0},{"OBJECT_NAME":"ONEWEB-0351","OBJECT_ID":"2021-083AF","EPOCH":"2025-12-31T07:21:12.567744","MEAN_MOTION":13.20771014,"ECCENTRICITY":0.00013854,"INCLINATION":87.9222,"RA_OF_ASC_NODE":307.9218,"ARG_OF_PERICENTER":46.8061,"MEAN_ANOMALY":313.3187,"EPHEMERIS_TYPE":0,"CLASSIFICATION_TYPE":"U","NORAD_CAT_ID":49215,"ELEMENT_SET_NO":999,"REV_AT_EPOCH":21461,"BSTAR":9.810977e-6,"MEAN_MOTION_DOT":1.7e-7,"MEAN_MOTION_DDOT":0},{"OBJECT_NAME":"ONEWEB-0352","OBJECT_ID":"2021-083AG","EPOCH":"2025-12-30T23:27:16.800192","MEAN_MOTION":13.13468347,"ECCENTRICITY":0.00014907,"INCLINATION":87.897,"RA_OF_ASC_NODE":353.6717,"ARG_OF_PERICENTER":76.0688,"MEAN_ANOMALY":284.0607,"EPHEMERIS_TYPE":0,"CLASSIFICATION_TYPE":"U","NORAD_CAT_ID":49216,"ELEMENT_SET_NO":999,"REV_AT_EPOCH":20894,"BSTAR":0.00066090962,"MEAN_MOTION_DOT":2.54e-6,"MEAN_MOTION_DDOT":0},{"OBJECT_NAME":"ONEWEB-0354","OBJECT_ID":"2021-083AH","EPOCH":"2025-12-31T06:08:40.335360","MEAN_MOTION":13.20771996,"ECCENTRICITY":0.00016334,"INCLINATION":87.9225,"RA_OF_ASC_NODE":307.9311,"ARG_OF_PERICENTER":86.9208,"MEAN_ANOMALY":273.2112,"EPHEMERIS_TYPE":0,"CLASSIFICATION_TYPE":"U","NORAD_CAT_ID":49217,"ELEMENT_SET_NO":999,"REV_AT_EPOCH":21464,"BSTAR":0.00020817079,"MEAN_MOTION_DOT":9.8e-7,"MEAN_MOTION_DDOT":0},{"OBJECT_NAME":"ONEWEB-0355","OBJECT_ID":"2021-083AJ","EPOCH":"2025-12-30T22:19:13.175040","MEAN_MOTION":13.13469208,"ECCENTRICITY":0.0001537,"INCLINATION":87.8971,"RA_OF_ASC_NODE":353.6948,"ARG_OF_PERICENTER":86.4799,"MEAN_ANOMALY":273.6506,"EPHEMERIS_TYPE":0,"CLASSIFICATION_TYPE":"U","NORAD_CAT_ID":49218,"ELEMENT_SET_NO":999,"REV_AT_EPOCH":20881,"BSTAR":-0.0007257,"MEAN_MOTION_DOT":-2.52e-6,"MEAN_MOTION_DDOT":0},{"OBJECT_NAME":"ONEWEB-0357","OBJECT_ID":"2021-083AK","EPOCH":"2025-12-31T06:04:07.849632","MEAN_MOTION":13.20770865,"ECCENTRICITY":0.00016222,"INCLINATION":87.9222,"RA_OF_ASC_NODE":307.9279,"ARG_OF_PERICENTER":76.43,"MEAN_ANOMALY":283.7014,"EPHEMERIS_TYPE":0,"CLASSIFICATION_TYPE":"U","NORAD_CAT_ID":49219,"ELEMENT_SET_NO":999,"REV_AT_EPOCH":21464,"BSTAR":0.00023312194,"MEAN_MOTION_DOT":1.08e-6,"MEAN_MOTION_DDOT":0},{"OBJECT_NAME":"ONEWEB-0332","OBJECT_ID":"2021-090A","EPOCH":"2025-12-31T07:16:01.217568","MEAN_MOTION":13.14504337,"ECCENTRICITY":0.00018247,"INCLINATION":87.8998,"RA_OF_ASC_NODE":323.1661,"ARG_OF_PERICENTER":74.7311,"MEAN_ANOMALY":285.402,"EPHEMERIS_TYPE":0,"CLASSIFICATION_TYPE":"U","NORAD_CAT_ID":49279,"ELEMENT_SET_NO":999,"REV_AT_EPOCH":20552,"BSTAR":-0.00066688182,"MEAN_MOTION_DOT":-2.34e-6,"MEAN_MOTION_DDOT":0},{"OBJECT_NAME":"ONEWEB-0347","OBJECT_ID":"2021-090B","EPOCH":"2025-12-31T05:50:30.166080","MEAN_MOTION":13.20772558,"ECCENTRICITY":0.00020628,"INCLINATION":87.9212,"RA_OF_ASC_NODE":307.9389,"ARG_OF_PERICENTER":72.6446,"MEAN_ANOMALY":287.4913,"EPHEMERIS_TYPE":0,"CLASSIFICATION_TYPE":"U","NORAD_CAT_ID":49280,"ELEMENT_SET_NO":999,"REV_AT_EPOCH":20887,"BSTAR":-6.3989816e-5,"MEAN_MOTION_DOT":-1.3e-7,"MEAN_MOTION_DDOT":0},{"OBJECT_NAME":"ONEWEB-0349","OBJECT_ID":"2021-090C","EPOCH":"2025-12-31T06:35:56.234688","MEAN_MOTION":13.2077217,"ECCENTRICITY":0.0001691,"INCLINATION":87.922,"RA_OF_ASC_NODE":307.9313,"ARG_OF_PERICENTER":76.4394,"MEAN_ANOMALY":283.6928,"EPHEMERIS_TYPE":0,"CLASSIFICATION_TYPE":"U","NORAD_CAT_ID":49281,"ELEMENT_SET_NO":999,"REV_AT_EPOCH":20766,"BSTAR":2.5140761e-5,"MEAN_MOTION_DOT":2.3e-7,"MEAN_MOTION_DDOT":0},{"OBJECT_NAME":"ONEWEB-0353","OBJECT_ID":"2021-090D","EPOCH":"2025-12-31T07:04:37.067808","MEAN_MOTION":13.14501469,"ECCENTRICITY":0.00019257,"INCLINATION":87.901,"RA_OF_ASC_NODE":323.1548,"ARG_OF_PERICENTER":72.7275,"MEAN_ANOMALY":287.4065,"EPHEMERIS_TYPE":0,"CLASSIFICATION_TYPE":"U","NORAD_CAT_ID":49282,"ELEMENT_SET_NO":999,"REV_AT_EPOCH":20552,"BSTAR":-0.00051748903,"MEAN_MOTION_DOT":-1.79e-6,"MEAN_MOTION_DDOT":0}]
